#aV2019  5 20  0  0  0.00000000     288 DD+AD WGS84 FIT  NGA
## 2054  86400.00000000   300.00000000 58623 0.0000000000000
+   31     1  2  3  5  6  7  8  9 10 11 12 13 14 15 16 17 18
+         19 20 21 22 23 24 25 26 27 28 29 30 31 32  0  0  0
+          0  0  0  0  0  0  0  0  0  0  0  0  0  0  0  0  0
+          0  0  0  0  0  0  0  0  0  0  0  0  0  0  0  0  0
+          0  0  0  0  0  0  0  0  0  0  0  0  0  0  0  0  0
++         2  2  2  2  2  2  2  2  2  2  2  2  2  2  2  2  2
++         2  2  2  2  2  2  2  2  2  2  2  2  2  2  0  0  0
++         0  0  0  0  0  0  0  0  0  0  0  0  0  0  0  0  0
++         0  0  0  0  0  0  0  0  0  0  0  0  0  0  0  0  0
++         0  0  0  0  0  0  0  0  0  0  0  0  0  0  0  0  0
%c cc cc ccc ccc cccc cccc cccc cccc ccccc ccccc ccccc ccccc
%c cc cc ccc ccc cccc cccc cccc cccc ccccc ccccc ccccc ccccc
%f  0.0000000  0.000000000  0.00000000000  0.000000000000000
%f  0.0000000  0.000000000  0.00000000000  0.000000000000000
%i    0    0    0    0      0      0      0      0         0
%i    0    0    0    0      0      0      0      0         0
/*      NGA, ST. LOUIS,MO.                                  
/*   EPHEMERIS COMPUTED FROM 2 DAYS OF DATA                 
/*   EPOCHA v5 SMOOTHER                                     
/*   G1762 IERS2010 SATAF SATAPC                            
*  2019  5 20  4 50  0.00000000
P  1 -13791.880691  22477.600177   -896.789239    -20.480234                    
V  1  -2698.308149   -639.450342  32276.182768     -0.090250                    
P  2  18123.534272  -7736.843627 -17130.484200   -217.369875                    
V  2  -9333.297863  21145.824203 -18922.298855     -0.091406                    
P  3 -13037.862605  12842.485624 -19258.113775    187.674421                    
V  3 -24310.121059  -2424.369664  14955.246506     -0.006402                    
P  5  26219.367243  -2468.702234   4104.056757      0.862999                    
V  5   5281.871584   3060.646263 -30793.976792     -0.001373                    
P  6  13372.031417   6636.336047 -21924.010746    200.877835                    
V  6 -14834.987276  23628.196911  -1858.436489     -0.101300                    
P  7  -3441.240801  22535.413404  13477.291338    -27.716686                    
V  7 -11452.372490  12681.594871 -25071.023194     -0.075387                    
P  8 -10890.924111  10984.895352  21599.088368   -144.220481                    
V  8 -13401.942701 -23844.082250   5578.318441     -0.013901                    
P  9   6860.778644  24454.917860  -7788.588457    408.022970                    
V  9  -7205.550080  -7310.732395 -29459.779231     -0.071623                    
P 10 -18567.599231 -11463.783731  15341.497876     41.328013                    
V 10  19343.497509  -1023.909287  22545.847329     -0.109474                    
P 11  -9367.882297  23389.296674   8255.997490   -602.997613                    
V 11  -2558.551544 -11616.536577  27947.656552      0.080631                    
P 12  14910.640051 -11144.486748 -19091.393694    240.878460                    
V 12  23521.964130   3756.416603  16530.762540     -0.034542                    
P 13  15315.888540  -1373.147806  21550.726056    -62.891101                    
V 13   9266.461914  25997.839198  -4858.872213      0.016820                    
P 14 -16990.566337 -14277.765223 -14406.911879    -79.741250                    
V 14  -5403.362271 -18104.851262  23605.683607      0.016051                    
P 15   9845.127650 -13140.070076  20554.354096   -312.008856                    
V 15  15483.972591  22021.843239   6967.898909      0.021660                    
P 16 -26266.342054    -14.791883   5096.680233    -41.435334                    
V 16  -6341.061635  -2570.516032 -31092.803276     -0.029447                    
P 17  14664.356979  20884.005504  -7123.854747     57.635114                    
V 17   2145.539845   9510.461473  30479.146976      0.062496                    
P 18 -16980.442521  18546.762308   7846.723901     54.719075                    
V 18   2658.145627 -10772.865217  29521.149198      0.033796                    
P 19  16524.097525  14945.931415 -14699.773963   -316.874037                    
V 19   5254.934504  17422.101490  24194.465708      0.045909                    
P 20  -9563.761920 -14325.988999  20149.338900    524.837863                    
V 20  25729.835303  -3126.619666   9787.407683      0.002506                    
P 21  -2504.233519 -20810.263310  17200.925561   -189.398455                    
V 21  11371.521405 -16911.045340 -19584.954207      0.074018                    
P 22 -19724.526005  10892.587966 -13769.178926   -703.761797                    
V 22 -18074.422884  -2560.113473  23544.691978     -0.062313                    
P 23  -3316.708761  19680.484282 -16986.622736   -185.459652                    
V 23 -12806.873698 -18570.317513 -19049.964112      0.016314                    
P 24  14707.740994 -21695.072290   2842.210442    -66.330481                    
V 24   1383.502693   5202.526420  31201.493748     -0.004758                    
P 25    944.084161 -15081.977626 -22053.230145   -757.971468                    
V 25  27427.252778   1427.962355    448.123078     -0.037288                    
P 26 -25688.354142  -4448.710671  -5569.185039    205.836151                    
V 26   7071.289674  -2732.350026 -30373.218096      0.096271                    
P 27 -16548.827452  -1634.623152  20674.119435   -136.250088                    
V 27 -11644.088336 -23668.361339 -10840.572402     -0.095021                    
P 28  16689.825394  13284.787353  16367.591805    767.823936                    
V 28 -19661.565456  -1297.205442  22014.262364     -0.000298                    
P 29  -1948.062679 -23756.923617 -11746.263797    197.315310                    
V 29   7537.407665  12880.876916 -27384.250970     -0.094091                    
P 30   5858.106451  16718.874039  19754.988429   -107.914402                    
V 30 -15598.263163  19794.620174 -12330.402248     -0.071325                    
P 31 -14700.586266  -5173.374033 -21550.369388     36.959333                    
V 31  15159.030213 -22724.030655  -4449.889147     -0.026719                    
P 32 -16887.485659 -18537.844298  -8869.747592    -79.963157                    
V 32  -2981.412133 -11226.790800  28829.934065      0.167461                    
EOF
